start=new Date('2023-03-19T00:00:00.000Z').valueOf();
sats=[{"MEAN_ELEMENT_THEORY":"SGP4","GP_ID":"228379002","COUNTRY_CODE":"US","CENTER_NAME":"EARTH","SEMIMAJOR_AXIS":"6925.255","TLE_LINE1":"1 47565U 21009T   23077.79841484  .00029880  00000-0  20147-2 0  9996","MEAN_ANOMALY":"251.7316","ECCENTRICITY":"0.00012720","SITE":"AFETR","OBJECT_TYPE":"PAYLOAD","OBJECT_ID":"2021-009T","INCLINATION":"53.0533","MEAN_MOTION_DDOT":"0.0000000000000","DECAY_DATE":null,"MEAN_MOTION":"15.06430616","ARG_OF_PERICENTER":"108.3811","RA_OF_ASC_NODE":"210.8630","FILE":"3864379","EPOCH":"2023-03-18T19:09:43.042176","CLASSIFICATION_TYPE":"U","REV_AT_EPOCH":"11771","NORAD_CAT_ID":"47565","TLE_LINE2":"2 47565  53.0533 210.8630 0001272 108.3811 251.7316 15.06430616117716","MEAN_MOTION_DOT":"0.00029880","OBJECT_NAME":"STARLINK-1964","APOAPSIS":"548.001","PERIAPSIS":"546.239","TIME_SYSTEM":"UTC","ELEMENT_SET_NO":"999","BSTAR":"0.00201470000000","EPHEMERIS_TYPE":"0","PERIOD":"95.590","REF_FRAME":"TEME","RCS_SIZE":"LARGE","LAUNCH_DATE":"2021-02-04"},{"OBJECT_ID":"2021-009U","OBJECT_TYPE":"PAYLOAD","SITE":"AFETR","ECCENTRICITY":"0.00014330","MEAN_ANOMALY":"263.5840","TLE_LINE1":"1 47566U 21009U   23077.72560794  .00007150  00000-0  49814-3 0  9991","SEMIMAJOR_AXIS":"6925.282","COUNTRY_CODE":"US","GP_ID":"228401996","CENTER_NAME":"EARTH","MEAN_ELEMENT_THEORY":"SGP4","CLASSIFICATION_TYPE":"U","FILE":"3864479","EPOCH":"2023-03-18T17:24:52.526016","RA_OF_ASC_NODE":"201.1891","ARG_OF_PERICENTER":"96.5312","MEAN_MOTION":"15.06421646","MEAN_MOTION_DDOT":"0.0000000000000","DECAY_DATE":null,"INCLINATION":"53.0519","TIME_SYSTEM":"UTC","PERIAPSIS":"546.155","OBJECT_NAME":"STARLINK-1965","APOAPSIS":"548.140","MEAN_MOTION_DOT":"0.00007150","TLE_LINE2":"2 47566  53.0519 201.1891 0001433  96.5312 263.5840 15.06421646117240","NORAD_CAT_ID":"47566","REV_AT_EPOCH":"11724","LAUNCH_DATE":"2021-02-04","RCS_SIZE":"LARGE","REF_FRAME":"TEME","PERIOD":"95.591","EPHEMERIS_TYPE":"0","BSTAR":"0.00049814000000","ELEMENT_SET_NO":"999"},{"REV_AT_EPOCH":"11669","NORAD_CAT_ID":"47567","TLE_LINE2":"2 47567  53.0512 240.7283 0000699  95.7363 264.3706 15.06427825116691","APOAPSIS":"547.612","OBJECT_NAME":"STARLINK-1966","MEAN_MOTION_DOT":"0.00021692","PERIAPSIS":"546.644","TIME_SYSTEM":"UTC","EPHEMERIS_TYPE":"0","BSTAR":"0.00146960000000","ELEMENT_SET_NO":"999","REF_FRAME":"TEME","PERIOD":"95.590","RCS_SIZE":"LARGE","LAUNCH_DATE":"2021-02-04","MEAN_ELEMENT_THEORY":"SGP4","SEMIMAJOR_AXIS":"6925.263","CENTER_NAME":"EARTH","GP_ID":"228401744","COUNTRY_CODE":"US","MEAN_ANOMALY":"264.3706","TLE_LINE1":"1 47567U 21009V   23077.82881717  .00021692  00000-0  14696-2 0  9990","ECCENTRICITY":"0.00006990","OBJECT_TYPE":"PAYLOAD","SITE":"AFETR","OBJECT_ID":"2021-009V","INCLINATION":"53.0512","MEAN_MOTION_DDOT":"0.0000000000000","DECAY_DATE":null,"MEAN_MOTION":"15.06427825","ARG_OF_PERICENTER":"95.7363","RA_OF_ASC_NODE":"240.7283","FILE":"3864479","EPOCH":"2023-03-18T19:53:29.803488","CLASSIFICATION_TYPE":"U"},{"RCS_SIZE":"LARGE","LAUNCH_DATE":"2021-02-04","EPHEMERIS_TYPE":"0","BSTAR":"0.00151410000000","ELEMENT_SET_NO":"999","REF_FRAME":"TEME","PERIOD":"95.591","OBJECT_NAME":"STARLINK-1967","APOAPSIS":"547.674","MEAN_MOTION_DOT":"0.00022357","PERIAPSIS":"546.614","TIME_SYSTEM":"UTC","REV_AT_EPOCH":"11670","NORAD_CAT_ID":"47568","TLE_LINE2":"2 47568  53.0510 240.6108 0000765 103.2232 256.8842 15.06422699116702","ARG_OF_PERICENTER":"103.2232","RA_OF_ASC_NODE":"240.6108","FILE":"3864479","EPOCH":"2023-03-18T20:30:38.719584","CLASSIFICATION_TYPE":"U","INCLINATION":"53.0510","DECAY_DATE":null,"MEAN_MOTION_DDOT":"0.0000000000000","MEAN_MOTION":"15.06422699","ECCENTRICITY":"0.00007650","OBJECT_TYPE":"PAYLOAD","SITE":"AFETR","OBJECT_ID":"2021-009W","MEAN_ELEMENT_THEORY":"SGP4","SEMIMAJOR_AXIS":"6925.279","GP_ID":"228402488","CENTER_NAME":"EARTH","COUNTRY_CODE":"US","TLE_LINE1":"1 47568U 21009W   23077.85461481  .00022357  00000-0  15141-2 0  9991","MEAN_ANOMALY":"256.8842"},{"INCLINATION":"53.0521","DECAY_DATE":null,"MEAN_MOTION_DDOT":"0.0000000000000","MEAN_MOTION":"15.06443881","ARG_OF_PERICENTER":"102.8997","RA_OF_ASC_NODE":"201.2392","FILE":"3864479","EPOCH":"2023-03-18T17:08:56.802048","CLASSIFICATION_TYPE":"U","MEAN_ELEMENT_THEORY":"SGP4","COUNTRY_CODE":"US","GP_ID":"228402743","CENTER_NAME":"EARTH","SEMIMAJOR_AXIS":"6925.214","TLE_LINE1":"1 47570U 21009Y   23077.71454632  .00032203  00000-0  21684-2 0  9999","MEAN_ANOMALY":"257.2148","ECCENTRICITY":"0.00014050","SITE":"AFETR","OBJECT_TYPE":"PAYLOAD","OBJECT_ID":"2021-009Y","ELEMENT_SET_NO":"999","EPHEMERIS_TYPE":"0","BSTAR":"0.00216840000000","PERIOD":"95.589","REF_FRAME":"TEME","RCS_SIZE":"LARGE","LAUNCH_DATE":"2021-02-04","NORAD_CAT_ID":"47570","REV_AT_EPOCH":"11724","TLE_LINE2":"2 47570  53.0521 201.2392 0001405 102.8997 257.2148 15.06443881117240","MEAN_MOTION_DOT":"0.00032203","APOAPSIS":"548.052","OBJECT_NAME":"STARLINK-1969","PERIAPSIS":"546.106","TIME_SYSTEM":"UTC"},{"RA_OF_ASC_NODE":"210.8964","ARG_OF_PERICENTER":"96.9534","CLASSIFICATION_TYPE":"U","EPOCH":"2023-03-18T18:59:06.183456","FILE":"3864479","DECAY_DATE":null,"MEAN_MOTION_DDOT":"0.0000000000000","INCLINATION":"53.0517","MEAN_MOTION":"15.06429624","ECCENTRICITY":"0.00011450","OBJECT_ID":"2021-009Z","SITE":"AFETR","OBJECT_TYPE":"PAYLOAD","MEAN_ELEMENT_THEORY":"SGP4","TLE_LINE1":"1 47571U 21009Z   23077.79104379  .00030786  00000-0  20750-2 0  9995","MEAN_ANOMALY":"263.1585","GP_ID":"228401496","CENTER_NAME":"EARTH","COUNTRY_CODE":"US","SEMIMAJOR_AXIS":"6925.258","RCS_SIZE":"LARGE","LAUNCH_DATE":"2021-02-04","PERIOD":"95.590","REF_FRAME":"TEME","ELEMENT_SET_NO":"999","BSTAR":"0.00207500000000","EPHEMERIS_TYPE":"0","MEAN_MOTION_DOT":"0.00030786","OBJECT_NAME":"STARLINK-1970","APOAPSIS":"547.916","TIME_SYSTEM":"UTC","PERIAPSIS":"546.330","TLE_LINE2":"2 47571  53.0517 210.8964 0001145  96.9534 263.1585 15.06429624117114","NORAD_CAT_ID":"47571","REV_AT_EPOCH":"11711"},{"ELEMENT_SET_NO":"999","EPHEMERIS_TYPE":"0","BSTAR":"0.00215520000000","PERIOD":"95.590","REF_FRAME":"TEME","LAUNCH_DATE":"2021-02-04","RCS_SIZE":"LARGE","REV_AT_EPOCH":"11711","NORAD_CAT_ID":"47572","TLE_LINE2":"2 47572  53.0517 210.9789 0001497  54.3990 305.7138 15.06431837117111","PERIAPSIS":"546.079","TIME_SYSTEM":"UTC","MEAN_MOTION_DOT":"0.00031994","OBJECT_NAME":"STARLINK-1971","APOAPSIS":"548.153","MEAN_MOTION":"15.06431837","INCLINATION":"53.0517","MEAN_MOTION_DDOT":"0.0000000000000","DECAY_DATE":null,"FILE":"3864479","EPOCH":"2023-03-18T18:32:34.732608","CLASSIFICATION_TYPE":"U","ARG_OF_PERICENTER":"54.3990","RA_OF_ASC_NODE":"210.9789","GP_ID":"228402245","COUNTRY_CODE":"US","CENTER_NAME":"EARTH","SEMIMAJOR_AXIS":"6925.251","MEAN_ANOMALY":"305.7138","TLE_LINE1":"1 47572U 21009AA  23077.77262422  .00031994  00000-0  21552-2 0  9991","MEAN_ELEMENT_THEORY":"SGP4","SITE":"AFETR","OBJECT_TYPE":"PAYLOAD","OBJECT_ID":"2021-009AA","ECCENTRICITY":"0.00014970"},{"MEAN_MOTION":"15.06425985","INCLINATION":"53.0535","MEAN_MOTION_DDOT":"0.0000000000000","DECAY_DATE":null,"EPOCH":"2023-03-18T18:00:42.354144","FILE":"3864479","CLASSIFICATION_TYPE":"U","ARG_OF_PERICENTER":"109.8670","RA_OF_ASC_NODE":"211.0725","GP_ID":"228402989","COUNTRY_CODE":"US","CENTER_NAME":"EARTH","SEMIMAJOR_AXIS":"6925.269","TLE_LINE1":"1 47573U 21009AB  23077.75049021  .00031044  00000-0  20924-2 0  9996","MEAN_ANOMALY":"250.2414","MEAN_ELEMENT_THEORY":"SGP4","SITE":"AFETR","OBJECT_TYPE":"PAYLOAD","OBJECT_ID":"2021-009AB","ECCENTRICITY":"0.00008830","ELEMENT_SET_NO":"999","EPHEMERIS_TYPE":"0","BSTAR":"0.00209240000000","PERIOD":"95.590","REF_FRAME":"TEME","LAUNCH_DATE":"2021-02-04","RCS_SIZE":"LARGE","REV_AT_EPOCH":"11710","NORAD_CAT_ID":"47573","TLE_LINE2":"2 47573  53.0535 211.0725 0000883 109.8670 250.2414 15.06425985117100","PERIAPSIS":"546.522","TIME_SYSTEM":"UTC","MEAN_MOTION_DOT":"0.00031044","OBJECT_NAME":"STARLINK-1975","APOAPSIS":"547.745"},{"EPHEMERIS_TYPE":"0","BSTAR":"0.00143600000000","ELEMENT_SET_NO":"999","REF_FRAME":"TEME","PERIOD":"95.591","LAUNCH_DATE":"2021-02-04","RCS_SIZE":"LARGE","REV_AT_EPOCH":"11667","NORAD_CAT_ID":"47574","TLE_LINE2":"2 47574  53.0521 241.3074 0001196  98.0111 262.1014 15.06411851116672","PERIAPSIS":"546.349","TIME_SYSTEM":"UTC","OBJECT_NAME":"STARLINK-1976","APOAPSIS":"548.006","MEAN_MOTION_DOT":"0.00021179","MEAN_MOTION":"15.06411851","INCLINATION":"53.0521","DECAY_DATE":null,"MEAN_MOTION_DDOT":"0.0000000000000","FILE":"3864479","EPOCH":"2023-03-18T16:47:43.667808","CLASSIFICATION_TYPE":"U","ARG_OF_PERICENTER":"98.0111","RA_OF_ASC_NODE":"241.3074","SEMIMAJOR_AXIS":"6925.312","COUNTRY_CODE":"US","GP_ID":"228403244","CENTER_NAME":"EARTH","TLE_LINE1":"1 47574U 21009AC  23077.69981097  .00021179  00000-0  14360-2 0  9993","MEAN_ANOMALY":"262.1014","MEAN_ELEMENT_THEORY":"SGP4","OBJECT_TYPE":"PAYLOAD","SITE":"AFETR","OBJECT_ID":"2021-009AC","ECCENTRICITY":"0.00011960"},{"MEAN_MOTION_DOT":"0.00042039","OBJECT_NAME":"STARLINK-1977","APOAPSIS":"547.936","TIME_SYSTEM":"UTC","PERIAPSIS":"546.390","TLE_LINE2":"2 47575  53.0510 240.7603 0001116  84.4558 275.6558 15.06416469116692","REV_AT_EPOCH":"11669","NORAD_CAT_ID":"47575","RCS_SIZE":"LARGE","LAUNCH_DATE":"2021-02-04","PERIOD":"95.591","REF_FRAME":"TEME","ELEMENT_SET_NO":"999","BSTAR":"0.00282310000000","EPHEMERIS_TYPE":"0","ECCENTRICITY":"0.00011160","OBJECT_ID":"2021-009AD","SITE":"AFETR","OBJECT_TYPE":"PAYLOAD","MEAN_ELEMENT_THEORY":"SGP4","TLE_LINE1":"1 47575U 21009AD  23077.82146722  .00042039  00000-0  28231-2 0  9997","MEAN_ANOMALY":"275.6558","GP_ID":"228401997","COUNTRY_CODE":"US","CENTER_NAME":"EARTH","SEMIMAJOR_AXIS":"6925.298","RA_OF_ASC_NODE":"240.7603","ARG_OF_PERICENTER":"84.4558","CLASSIFICATION_TYPE":"U","FILE":"3864479","EPOCH":"2023-03-18T19:42:54.767808","DECAY_DATE":null,"MEAN_MOTION_DDOT":"0.0000000000000","INCLINATION":"53.0510","MEAN_MOTION":"15.06416469"}];
